GAOFEN-1                
1 39150U 13018A   24031.49014350  .00001138  00000+0  17045-3 0  9999
2 39150  98.0052 105.2261 0020472 173.9334 186.2128 14.76464204580241
VNREDSAT 1              
1 39160U 13021B   24031.48035476  .00000944  00000+0  19233-3 0  9990
2 39160  98.0150 102.3382 0001327  81.4171 278.7182 14.63196270573311
ARIRANG-5 (KOMPSAT-5)   
1 39227U 13042A   24031.49779925  .00002175  00000+0  15968-3 0  9991
2 39227  97.6170 219.3197 0001494 111.5960 248.5426 15.04509911573458
SKYSAT-A                
1 39418U 13066C   24030.74061298  .00003409  00000+0  25079-3 0  9998
2 39418  97.5053  95.1728 0027009  57.5867 302.7967 15.03750995557537
DUBAISAT-2              
1 39419U 13066D   24031.50520817  .00004754  00000+0  39796-3 0  9996
2 39419  97.4069  43.2023 0014753  83.5634 276.7269 14.98809256555899
GPM-CORE                
1 39574U 14009C   24031.46622708  .00018298  00000+0  39493-3 0  9995
2 39574  64.9902 333.9692 0012110 262.7029  97.2735 15.44569904563800
SENTINEL-1A             
1 39634U 14016A   24031.45915753  .00000248  00000+0  62327-4 0  9993
2 39634  98.1829  40.5320 0001293  91.6869 268.4479 14.59200685523507
KAZEOSAT 1              
1 39731U 14024A   24031.48000026  .00000332  00000+0  11430-3 0  9993
2 39731  98.4083 110.1169 0001000 103.4409 256.6892 14.42030773513556
ALOS-2                  
1 39766U 14029A   24031.47735155  .00002714  00000+0  37021-3 0  9993
2 39766  97.9226 130.1019 0001486 100.4458 259.6921 14.79470690523319
KAZEOSAT 2              
1 40010U 14033A   24031.48369283  .00000917  00000+0  12113-3 0  9996
2 40010  97.6411 262.9079 0010957 304.3236  55.6940 14.82239216520276
HODOYOSHI-4             
1 40011U 14033B   24031.54111801  .00001918  00000+0  23772-3 0  9990
2 40011  97.5975 247.9576 0024331 294.6955  65.1727 14.83581209519951
DEIMOS-2                
1 40013U 14033D   24031.50146222  .00002689  00000+0  29939-3 0  9990
2 40013  97.6993 282.2603 0001487  47.3748 312.7594 14.87917089521282
HODOYOSHI-3             
1 40015U 14033F   24031.11365072  .00001930  00000+0  25631-3 0  9998
2 40015  97.5956 224.1591 0035150 329.3490  30.5669 14.80455331518963
SPOT 7                  
1 40053U 14034A   24031.43861225  .00000744  00000+0  16788-3 0  9992
2 40053  98.1767 100.4773 0001517  84.1898 275.9475 14.59078434510523
SKYSAT-B                
1 40072U 14037D   24031.26779366  .00001681  00000+0  21181-3 0  9995
2 40072  98.3420 296.9895 0005529 196.9802 163.1226 14.83425067517155
WORLDVIEW-3 (WV-3)      
1 40115U 14048A   24030.88563719  .00001523  00000+0  18488-3 0  9996
2 40115  97.8424 106.1940 0002470 183.7369 176.3828 14.84998836513046
GAOFEN-2                
1 40118U 14049A   24031.49119099  .00001546  00000+0  20766-3 0  9993
2 40118  97.6835  88.0655 0005122 168.6516 191.4814 14.80661522510851
YAOGAN 21               
1 40143U 14053A   24031.45184551  .00010482  00000+0  44013-3 0  9997
2 40143  97.2738  93.8984 0011093 314.4166  45.6162 15.23578179522843
YAOGAN 22               
1 40275U 14063A   24030.89294444 -.00000026  00000+0  53712-4 0  9995
2 40275 100.6388 162.0240 0006132 351.2428   8.8576 13.15473194445643
ASNARO                  
1 40298U 14070A   24031.52343357  .00013616  00000+0  64165-3 0  9998
2 40298  97.4220 115.5082 0002718   6.2775 353.8493 15.19617691512263
HODOYOSHI-1             
1 40299U 14070B   24031.42952679  .00017710  00000+0  42998-3 0  9990
2 40299  97.1620  93.8030 0008956 167.2289 192.9186 15.41034587513864
YAOGAN 23               
1 40305U 14071A   24031.46093831  .00026361  00000+0  66515-3 0  9992
2 40305  97.6808   8.5114 0002855 104.6070 255.5492 15.39826830511137
YAOGAN 24               
1 40310U 14072A   24031.52899758  .00001448  00000+0  21646-3 0  9993
2 40310  98.0363 156.6611 0014043 161.4086 198.7640 14.76202391495731
CBERS 4                 
1 40336U 14079A   24031.45573686  .00000204  00000+0  85944-4 0  9990
2 40336  98.4179 103.2802 0001563  67.6302 292.5049 14.35483696479483
RESURS P2               
1 40360U 14087A   24031.49696468  .00019614  00000+0  33202-3 0  9998
2 40360  97.1613 117.9913 0008482  88.7625 271.4599 15.51556043509669
YAOGAN-26               
1 40362U 14088A   24031.50885516  .00005293  00000+0  22096-3 0  9994
2 40362  97.0682  60.1822 0006814 134.0325 226.1476 15.24026920506331
SMAP                    
1 40376U 15003A   24030.97655403  .00000868  00000+0  17698-3 0  9992
2 40376  98.1296  39.3130 0001505  95.3128 264.8246 14.63373476480643
KOMPSAT-3A              
1 40536U 15014A   24031.48823564  .00008712  00000+0  42058-3 0  9998
2 40536  97.5991 340.4627 0005182  66.2489 293.9288 15.18899662488788
SENTINEL-2A             
1 40697U 15028A   24031.48018701  .00000210  00000+0  96842-4 0  9996
2 40697  98.5724 107.7047 0000946 100.2525 259.8765 14.30815140449650
GAOFEN-8                
1 40701U 15030A   24031.47071765  .00014145  00000+0  59305-3 0  9997
2 40701  97.6351 183.5274 0006181  66.2785 293.9099 15.23605880478676
CARBONITE 1 (CBNT-1)    
1 40718U 15032D   24031.50748460  .00002570  00000+0  36504-3 0  9999
2 40718  97.6680 238.3067 0014485 251.4219 108.5419 14.77677429460926
YAOGAN-27               
1 40878U 15040A   24031.46075883 -.00000013  00000+0  77984-4 0  9991
2 40878 100.0854  46.7073 0008891  59.5050 300.6941 13.16008021405031
GAOFEN-9 01             
1 40894U 15047A   24031.46283446  .00001308  00000+0  18167-3 0  9996
2 40894  97.7518  91.2157 0030866  96.4056 264.0673 14.79188249451733
LAPAN-A2                
1 40931U 15052B   24006.28856983  .00001263  00000+0  84248-4 0  9992
2 40931   6.0004  76.3799 0013541 291.8204  68.0484 14.77555377447321
YAOGAN-28               
1 41026U 15064A   24031.47310776  .00009592  00000+0  40355-3 0  9998
2 41026  97.1893 187.3088 0007444 331.0791  29.0033 15.23561784458512
YAOGAN-29               
1 41038U 15069A   24031.47392120  .00000737  00000+0  10100-3 0  9996
2 41038  98.0612  45.0560 0001673  11.9302 348.1949 14.81477872442071
KENT RIDGE 1            
1 41167U 15077B   24030.70611356  .00004785  00000+0  22027-3 0  9996
2 41167  14.9793 202.0482 0010036 305.8670  54.0719 15.13749835448852
TELEOS-1                
1 41169U 15077D   24031.51147523  .00015695  00000+0  57549-3 0  9997
2 41169  14.9799 124.3527 0007719  90.0959 270.0248 15.25100100449760
GAOFEN-4                
1 41194U 15083A   24030.86592661 -.00000321  00000+0  00000+0 0  9993
2 41194   0.1698  87.5762 0001110 140.4967 318.9523  1.00272332 29826
JASON-3                 
1 41240U 16002A   24030.91640935 -.00000003  00000+0  25001-3 0  9990
2 41240  66.0417 138.5274 0007752 272.8912  87.1216 12.80929583375792
SENTINEL-3A             
1 41335U 16011A   24031.49950276  .00000195  00000+0  98612-4 0  9991
2 41335  98.6253 100.2703 0001222 106.6058 253.5257 14.26734630414337
ZIYUAN 3-2 (ZY 3-2)     
1 41556U 16033A   24031.48713013  .00009723  00000+0  43423-3 0  9990
2 41556  97.4702 108.1035 0003442 297.7203  62.3684 15.21556332426063
CARTOSAT-2C             
1 41599U 16040A   24031.36818754  .00007118  00000+0  33909-3 0  9994
2 41599  97.4060  92.6979 0012254 275.9313  84.0525 15.19368635421954
SKYSAT-C1               
1 41601U 16040C   24031.17172951  .00010396  00000+0  36348-3 0  9991
2 41601  97.0835  98.1986 0000878  88.0738 272.0604 15.29714040425043
LAPAN-A3                
1 41603U 16040E   24031.47840069  .00003438  00000+0  14451-3 0  9998
2 41603  97.1518  51.4900 0010897 223.4187 136.6193 15.24003815422240
BIROS                   
1 41604U 16040F   24030.66301689  .00012434  00000+0  37617-3 0  9994
2 41604  97.1396  63.3753 0009585 173.8143 186.3221 15.34285984422913
GAOFEN-3                
1 41727U 16049A   24031.51162013  .00000127  00000+0  51590-4 0  9993
2 41727  98.4074  41.1933 0000932  66.1948 293.9340 14.42253669393573
SKYSAT-C4               
1 41771U 16058B   24030.70883368  .00013173  00000+0  40549-3 0  9991
2 41771  97.0330  84.9706 0002387 106.4091 253.7415 15.33760038411985
SKYSAT-C5               
1 41772U 16058C   24030.67910276  .00014870  00000+0  39859-3 0  9994
2 41772  97.1809  89.1410 0002642  22.7474 337.3888 15.38077205410407
SKYSAT-C2               
1 41773U 16058D   24031.13071539  .00009968  00000+0  33937-3 0  9990
2 41773  97.0352  84.8975 0004574 110.7002 249.4730 15.30579806412002
SKYSAT-C3               
1 41774U 16058E   24030.72404756  .00018047  00000+0  44106-3 0  9994
2 41774  97.0344  89.9933 0004741 193.8340 166.2778 15.40857179412312
ALSAT 1B                
1 41785U 16059C   24031.50440520  .00000570  00000+0  10110-3 0  9993
2 41785  97.8358  65.3010 0010709 126.7260 233.4932 14.70740546392966
PATHFINDER 1            
1 41787U 16059E   24031.06942313  .00000924  00000+0  17939-3 0  9992
2 41787  97.8451  59.5885 0031132  89.4890 270.9881 14.65096262392472
SCATSAT 1               
1 41790U 16059H   24030.70789170  .00000412  00000+0  11425-3 0  9992
2 41790  98.2416  75.6004 0005002 160.7708 199.3677 14.51435852388965
GOKTURK 1A              
1 41875U 16073A   24031.40395662  .00000725  00000+0  15119-3 0  9990
2 41875  98.1333 287.3569 0001373  86.0318 274.1041 14.62837678381962
RESOURCESAT-2A          
1 41877U 16074A   24031.48465835  .00000232  00000+0  12528-3 0  9995
2 41877  98.6602 107.6575 0001856  79.6682 280.4704 14.21667914371028
CARTOSAT-2D             
1 41948U 17008A   24031.46790648  .00006212  00000+0  29783-3 0  9998
2 41948  97.4466  92.8899 0006392  48.3441 311.8340 15.19245359385834
SENTINEL-2B             
1 42063U 17013A   24031.51516931  .00000215  00000+0  98514-4 0  9996
2 42063  98.5698 107.7487 0001149  99.8411 260.2902 14.30824142360574
ZHUHAI-1 02 (CAS-4B)    
1 42759U 17034B   24031.15512847  .00012638  00000+0  53532-3 0  9995
2 42759  43.0122 283.4685 0010774 157.8011 202.3307 15.23040136366321
NUSAT-3 (MILANESAT)     
1 42760U 17034C   24031.08905934  .00014398  00000+0  57040-3 0  9995
2 42760  43.0104 272.3785 0013564 174.9091 185.1900 15.25172424366469
